H1 CPF 01  gfz 2021 07 15 12  6962 terrasarx 
H2 0702601  6201 31698    2021 07 15 12 59 42 2021 07 20 00 00 42   120 1 1  0 0 0
H9
10 0 59411  43182.000000  0    -305035.861   6600175.348  -1960176.169
10 0 59411  43302.000000  0    -131861.703   6804761.215  -1078389.899
10 0 59411  43422.000000  0      46126.143   6887459.219   -177642.082
10 0 59411  43542.000000  0     223671.685   6846713.257    726229.907
10 0 59411  43662.000000  0     395517.274   6683238.309   1617316.785
10 0 59411  43782.000000  0     556536.908   6400008.997   2479927.016
10 0 59411  43902.000000  0     701865.600   6002202.085   3298870.695
10 0 59411  44022.000000  0     827022.687   5497096.778   4059733.377
10 0 59411  44142.000000  0     928027.890   4893935.654   4749134.922
10 0 59411  44262.000000  0    1001502.297   4203742.430   5354970.059
10 0 59411  44382.000000  0    1044755.902   3439108.996   5866615.470
10 0 59411  44502.000000  0    1055859.670   2613958.428   6275111.878
10 0 59411  44622.000000  0    1033698.430   1743284.749   6573315.691
10 0 59411  44742.000000  0     978005.404    842875.855   6756018.080
10 0 59411  44862.000000  0     889377.563    -70974.771   6820029.446
10 0 59411  44982.000000  0     769271.412   -981761.415   6764232.021
10 0 59411  45102.000000  0     619978.973  -1873064.194   6589599.323
10 0 59411  45222.000000  0     444584.239  -2728844.809   6299180.512
10 0 59411  45342.000000  0     246900.901  -3533736.924   5898050.196
10 0 59411  45462.000000  0      31392.926  -4273323.079   5393222.197
10 0 59411  45582.000000  0    -196920.314  -4934394.947   4793533.633
10 0 59411  45702.000000  0    -432573.437  -5505196.469   4109498.642
10 0 59411  45822.000000  0    -669778.330  -5975643.861   3353128.201
10 0 59411  45942.000000  0    -902557.871  -6337513.468   2537720.305
10 0 59411  46062.000000  0   -1124885.640  -6584594.806   1677624.917
10 0 59411  46182.000000  0   -1330829.615  -6712806.520    787988.444
10 0 59411  46302.000000  0   -1514697.574  -6720269.793   -115521.204
10 0 59411  46422.000000  0   -1671176.874  -6607335.633  -1016999.715
10 0 59411  46542.000000  0   -1795466.717  -6376567.593  -1900594.980
10 0 59411  46662.000000  0   -1883399.998  -6032680.724  -2750793.379
10 0 59411  46782.000000  0   -1931551.814  -5582438.002  -3552698.293
10 0 59411  46902.000000  0   -1937331.456  -5034506.414  -4292294.136
10 0 59411  47022.000000  0   -1899055.576  -4399278.006  -4956689.576
10 0 59411  47142.000000  0   -1816001.664  -3688662.147  -5534336.378
10 0 59411  47262.000000  0   -1688441.062  -2915854.035  -6015221.894
10 0 59411  47382.000000  0   -1517650.763  -2095083.710  -6391032.961
10 0 59411  47502.000000  0   -1305904.019  -1241350.833  -6655287.998
10 0 59411  47622.000000  0   -1056441.058   -370151.730  -6803437.536
10 0 59411  47742.000000  0    -773420.223    502797.704  -6832933.744
10 0 59411  47862.000000  0    -461849.098   1361838.569  -6743268.924
10 0 59411  47982.000000  0    -127498.198   2191642.459  -6535983.075
10 0 59411  48102.000000  0     223201.838   2977478.245  -6214641.536
10 0 59411  48222.000000  0     583280.556   3705470.660  -5784781.684
10 0 59411  48342.000000  0     945362.077   4362844.290  -5253826.044
10 0 59411  48462.000000  0    1301811.036   4938149.947  -4630965.844
10 0 59411  48582.000000  0    1644889.112   5421471.181  -3927013.175
10 0 59411  48702.000000  0    1966918.627   5804604.125  -3154222.127
10 0 59411  48822.000000  0    2260449.552   6081207.562  -2326082.688
10 0 59411  48942.000000  0    2518426.870   6246920.071  -1457088.772
10 0 59411  49062.000000  0    2734353.780   6299439.527   -562483.294
10 0 59411  49182.000000  0    2902446.232   6238561.263    342014.149
10 0 59411  49302.000000  0    3017774.724   6066173.900   1240490.143
10 0 59411  49422.000000  0    3076389.843   5786213.971   2117125.132
10 0 59411  49542.000000  0    3075428.196   5404579.455   2956480.394
10 0 59411  49662.000000  0    3013196.332   4929003.889   3743777.781
10 0 59411  49782.000000  0    2889230.880   4368895.098   4465165.859
10 0 59411  49902.000000  0    2704330.960   3735141.536   5107968.889
10 0 59411  50022.000000  0    2460562.590   3039890.575   5660908.224
10 0 59411  50142.000000  0    2161239.484   2296309.097   6114295.183
10 0 59411  50262.000000  0    1810878.630   1518329.357   6460196.827
10 0 59411  50382.000000  0    1415130.108    720383.070   6692569.001
10 0 59411  50502.000000  0     980684.000    -82867.646   6807354.494
10 0 59411  50622.000000  0     515156.787   -876798.179   6802550.178
10 0 59411  50742.000000  0      26957.556  -1647088.024   6678240.846
10 0 59411  50862.000000  0    -474864.076  -2379978.893   6436597.397
10 0 59411  50982.000000  0    -980785.382  -3062520.931   6081840.346
10 0 59411  51102.000000  0   -1480988.765  -3682801.917   5620168.889
10 0 59411  51222.000000  0   -1965550.036  -4230157.248   5059659.852
10 0 59411  51342.000000  0   -2424635.929  -4695359.135   4410134.646
10 0 59411  51462.000000  0   -2848705.992  -5070780.264   3682992.695
10 0 59411  51582.000000  0   -3228712.538  -5350526.780   2891012.866
10 0 59411  51702.000000  0   -3556293.601  -5530536.501   2048128.078
10 0 59411  51822.000000  0   -3823955.892  -5608642.008   1169177.660
10 0 59411  51942.000000  0   -4025243.411  -5584596.017    269640.568
10 0 59411  52062.000000  0   -4154886.886  -5460058.005   -634644.570
10 0 59411  52182.000000  0   -4208930.222  -5238542.414  -1527767.520
10 0 59411  52302.000000  0   -4184829.936  -4925328.401  -2394035.741
10 0 59411  52422.000000  0   -4081525.283  -4527334.110  -3218257.351
10 0 59411  52542.000000  0   -3899477.463  -4052959.847  -3986011.363
10 0 59411  52662.000000  0   -3640677.905  -3511905.277  -4683899.774
10 0 59411  52782.000000  0   -3308626.416  -2914965.394  -5299777.818
10 0 59411  52902.000000  0   -2908279.833  -2273809.833  -5822958.109
10 0 59411  53022.000000  0   -2445973.484  -1600751.704  -6244386.420
10 0 59411  53142.000000  0   -1929316.530   -908509.842  -6556788.096
10 0 59411  53262.000000  0   -1367063.411   -209969.374  -6754781.729
10 0 59411  53382.000000  0    -768965.814    482053.946  -6834960.580
10 0 59411  53502.000000  0    -145606.536   1155042.702  -6795944.971
10 0 59411  53622.000000  0     491783.167   1796998.347  -6638403.124
10 0 59411  53742.000000  0    1131520.060   2396649.726  -6365043.046
10 0 59411  53862.000000  0    1761679.322   2943648.348  -5980571.594
10 0 59411  53982.000000  0    2370312.402   3428746.408  -5491621.467
10 0 59411  54102.000000  0    2945670.713   3843953.936  -4906646.973
10 0 59411  54222.000000  0    3476431.261   4182674.638  -4235789.839
10 0 59411  54342.000000  0    3951921.144   4439817.210  -3490714.002
10 0 59411  54462.000000  0    4362335.890   4611878.645  -2684410.742
10 0 59411  54582.000000  0    4698945.525   4696996.613  -1830976.116
10 0 59411  54702.000000  0    4954284.377   4694970.445   -945366.329
10 0 59411  54822.000000  0    5122319.505   4607248.256    -43132.065
10 0 59411  54942.000000  0    5198590.630   4436880.615    859860.253
10 0 59411  55062.000000  0    5180320.874   4188442.675   1747714.197
10 0 59411  55182.000000  0    5066495.688   3867925.114   2604792.006
10 0 59411  55302.000000  0    4857904.534   3482595.557   3415999.667
10 0 59411  55422.000000  0    4557144.567   3040835.438   4167059.735
10 0 59411  55542.000000  0    4168588.227   2551956.383   4844766.333
10 0 59411  55662.000000  0    3698316.564   2026002.014   5437218.727
10 0 59411  55782.000000  0    3154015.878   1473539.078   5934029.396
10 0 59411  55902.000000  0    2544845.402    905442.172   6326500.905
10 0 59411  56022.000000  0    1881277.913    332678.093   6607770.669
10 0 59411  56142.000000  0    1174916.823   -233904.513   6772925.158
10 0 59411  56262.000000  0     438291.076   -783780.081   6819082.422
10 0 59411  56382.000000  0    -315368.265  -1306941.732   6745438.530
10 0 59411  56502.000000  0   -1072365.541  -1794082.900   6553280.076
10 0 59411  56622.000000  0   -1818788.462  -2236762.881   6245961.602
10 0 59411  56742.000000  0   -2540761.245  -2627552.482   5828850.511
10 0 59411  56862.000000  0   -3224702.593  -2960160.687   5309241.929
10 0 59411  56982.000000  0   -3857586.173  -3229539.735   4696237.542
10 0 59411  57102.000000  0   -4427193.287  -3431964.027   4000589.802
10 0 59411  57222.000000  0   -4922353.877  -3565082.359   3234516.800
10 0 59411  57342.000000  0   -5333171.623  -3627942.660   2411490.036
10 0 59411  57462.000000  0   -5651229.037  -3620989.199   1545996.597
10 0 59411  57582.000000  0   -5869765.180  -3546030.336    653278.814
10 0 59411  57702.000000  0   -5983821.600  -3406177.261   -250941.176
10 0 59411  57822.000000  0   -5990353.304  -3205756.373  -1150746.885
10 0 59411  57942.000000  0   -5888300.689  -2950196.328  -2030317.916
10 0 59411  58062.000000  0   -5678619.505  -2645892.690  -2874216.011
10 0 59411  58182.000000  0   -5364271.159  -2300055.446  -3667660.696
10 0 59411  58302.000000  0   -4950173.176  -1920542.698  -4396789.836
10 0 59411  58422.000000  0   -4443112.444  -1515685.229  -5048899.681
10 0 59411  58542.000000  0   -3851623.426  -1094105.965  -5612661.229
10 0 59411  58662.000000  0   -3185834.356   -664538.305  -6078308.226
10 0 59411  58782.000000  0   -2457286.522   -235647.931  -6437795.141
10 0 59411  58902.000000  0   -1678730.005    184138.268  -6684924.674
10 0 59411  59022.000000  0    -863899.619    586792.754  -6815443.038
10 0 59411  59142.000000  0     -27276.535    964836.274  -6827104.943
10 0 59411  59262.000000  0     816162.584   1311472.923  -6719707.395
10 0 59411  59382.000000  0    1651206.665   1620708.635  -6495095.371
10 0 59411  59502.000000  0    2462679.465   1887453.936  -6157134.054
10 0 59411  59622.000000  0    3235711.038   2107607.193  -5711649.023
99
